[{"OBJECT_NAME":"STARLINK-34340","OBJECT_ID":"2025-112T","EPOCH":"2026-03-09T17:46:52.226400","MEAN_MOTION":15.05647906,"ECCENTRICITY":8.495e-5,"INCLINATION":97.6025,"RA_OF_ASC_NODE":121.5373,"ARG_OF_PERICENTER":142.7286,"MEAN_ANOMALY":217.4,"EPHEMERIS_TYPE":0,"CLASSIFICATION_TYPE":"U","NORAD_CAT_ID":64163,"ELEMENT_SET_NO":999,"REV_AT_EPOCH":4331,"BSTAR":6.4740904e-5,"MEAN_MOTION_DOT":8.73e-6,"MEAN_MOTION_DDOT":0},{"OBJECT_NAME":"COSMOS 2251 DEB","OBJECT_ID":"1993-036BYJ","EPOCH":"2026-02-27T08:25:05.077344","MEAN_MOTION":15.02778291,"ECCENTRICITY":0.0017194,"INCLINATION":74.0208,"RA_OF_ASC_NODE":84.7822,"ARG_OF_PERICENTER":181.9976,"MEAN_ANOMALY":194.0424,"EPHEMERIS_TYPE":0,"CLASSIFICATION_TYPE":"U","NORAD_CAT_ID":47116,"ELEMENT_SET_NO":999,"REV_AT_EPOCH":60660,"BSTAR":0.0017596726,"MEAN_MOTION_DOT":0.00023658,"MEAN_MOTION_DDOT":0}]
